<?xml version="1.0" encoding="UTF-8"?>
<gpx version="1.1" creator="GPXlibre" xmlns="http://www.topografix.com/GPX/1/1"
     xmlns:xsi="http://www.w3.org/2001/XMLSchema-instance"
     xsi:schemaLocation="http://www.topografix.com/GPX/1/1 http://www.topografix.com/GPX/1/1/gpx.xsd">
  <metadata>
    <name>Boucle Vercors – Piste forestière</name>
    <desc>Trace d'exemple pour test simulateur GPXlibre : boucle moto-trail fictive avec dénivelé.</desc>
  </metadata>
  <wpt lat="45.051200" lon="5.436800">
    <ele>620.0</ele>
    <name>Départ – Parking forestier</name>
  </wpt>
  <wpt lat="45.049745" lon="5.344899">
    <ele>1108.1</ele>
    <name>Point haut – Col</name>
  </wpt>
  <trk>
    <name>Boucle Vercors – Piste forestière</name>
    <type>Off-road</type>
    <trkseg>
      <trkpt lat="45.051200" lon="5.436800"><ele>620.0</ele></trkpt>
      <trkpt lat="45.054316" lon="5.436405"><ele>637.9</ele></trkpt>
      <trkpt lat="45.057648" lon="5.435236"><ele>655.5</ele></trkpt>
      <trkpt lat="45.061074" lon="5.433348"><ele>670.4</ele></trkpt>
      <trkpt lat="45.064432" lon="5.430823"><ele>681.1</ele></trkpt>
      <trkpt lat="45.067546" lon="5.427767"><ele>687.1</ele></trkpt>
      <trkpt lat="45.070254" lon="5.424299"><ele>689.5</ele></trkpt>
      <trkpt lat="45.072434" lon="5.420543"><ele>690.0</ele></trkpt>
      <trkpt lat="45.074019" lon="5.416616"><ele>691.4</ele></trkpt>
      <trkpt lat="45.075017" lon="5.412622"><ele>696.5</ele></trkpt>
      <trkpt lat="45.075498" lon="5.408640"><ele>707.7</ele></trkpt>
      <trkpt lat="45.075588" lon="5.404725"><ele>726.7</ele></trkpt>
      <trkpt lat="45.075441" lon="5.400904"><ele>753.9</ele></trkpt>
      <trkpt lat="45.075216" lon="5.397176"><ele>788.4</ele></trkpt>
      <trkpt lat="45.075044" lon="5.393519"><ele>828.3</ele></trkpt>
      <trkpt lat="45.075005" lon="5.389895"><ele>870.6</ele></trkpt>
      <trkpt lat="45.075117" lon="5.386259"><ele>912.2</ele></trkpt>
      <trkpt lat="45.075330" lon="5.382570"><ele>949.7</ele></trkpt>
      <trkpt lat="45.075534" lon="5.378797"><ele>980.7</ele></trkpt>
      <trkpt lat="45.075582" lon="5.374928"><ele>1003.8</ele></trkpt>
      <trkpt lat="45.075315" lon="5.370975"><ele>1018.8</ele></trkpt>
      <trkpt lat="45.074588" lon="5.366978"><ele>1026.6</ele></trkpt>
      <trkpt lat="45.073302" lon="5.363006"><ele>1029.6</ele></trkpt>
      <trkpt lat="45.071416" lon="5.359151"><ele>1030.2</ele></trkpt>
      <trkpt lat="45.068960" lon="5.355523"><ele>1031.3</ele></trkpt>
      <trkpt lat="45.066030" lon="5.352246"><ele>1035.3</ele></trkpt>
      <trkpt lat="45.062772" lon="5.349441"><ele>1043.6</ele></trkpt>
      <trkpt lat="45.059359" lon="5.347222"><ele>1056.6</ele></trkpt>
      <trkpt lat="45.055962" lon="5.345685"><ele>1073.1</ele></trkpt>
      <trkpt lat="45.052726" lon="5.344899"><ele>1091.2</ele></trkpt>
      <trkpt lat="45.049745" lon="5.344899"><ele>1108.1</ele></trkpt>
      <trkpt lat="45.047054" lon="5.345685"><ele>1120.8</ele></trkpt>
      <trkpt lat="45.044625" lon="5.347222"><ele>1126.5</ele></trkpt>
      <trkpt lat="45.042379" lon="5.349441"><ele>1123.4</ele></trkpt>
      <trkpt lat="45.040209" lon="5.352246"><ele>1110.6</ele></trkpt>
      <trkpt lat="45.038003" lon="5.355523"><ele>1088.7</ele></trkpt>
      <trkpt lat="45.035674" lon="5.359151"><ele>1059.3</ele></trkpt>
      <trkpt lat="45.033180" lon="5.363006"><ele>1025.3</ele></trkpt>
      <trkpt lat="45.030542" lon="5.366978"><ele>989.8</ele></trkpt>
      <trkpt lat="45.027842" lon="5.370975"><ele>955.8</ele></trkpt>
      <trkpt lat="45.025221" lon="5.374928"><ele>926.1</ele></trkpt>
      <trkpt lat="45.022855" lon="5.378797"><ele>902.1</ele></trkpt>
      <trkpt lat="45.020929" lon="5.382570"><ele>884.2</ele></trkpt>
      <trkpt lat="45.019612" lon="5.386259"><ele>871.5</ele></trkpt>
      <trkpt lat="45.019025" lon="5.389895"><ele>862.1</ele></trkpt>
      <trkpt lat="45.019222" lon="5.393519"><ele>853.4</ele></trkpt>
      <trkpt lat="45.020186" lon="5.397176"><ele>842.7</ele></trkpt>
      <trkpt lat="45.021826" lon="5.400904"><ele>827.6</ele></trkpt>
      <trkpt lat="45.023994" lon="5.404725"><ele>806.7</ele></trkpt>
      <trkpt lat="45.026511" lon="5.408640"><ele>779.7</ele></trkpt>
      <trkpt lat="45.029192" lon="5.412622"><ele>747.6</ele></trkpt>
      <trkpt lat="45.031875" lon="5.416616"><ele>712.5</ele></trkpt>
      <trkpt lat="45.034448" lon="5.420543"><ele>677.3</ele></trkpt>
      <trkpt lat="45.036858" lon="5.424299"><ele>645.2</ele></trkpt>
      <trkpt lat="45.039117" lon="5.427767"><ele>619.3</ele></trkpt>
      <trkpt lat="45.041292" lon="5.430823"><ele>601.8</ele></trkpt>
      <trkpt lat="45.043485" lon="5.433348"><ele>593.8</ele></trkpt>
      <trkpt lat="45.045811" lon="5.435236"><ele>595.3</ele></trkpt>
      <trkpt lat="45.048364" lon="5.436405"><ele>604.8</ele></trkpt>
      <trkpt lat="45.051200" lon="5.436800"><ele>620.0</ele></trkpt>
    </trkseg>
  </trk>
</gpx>
